{
  "type": "FeatureCollection",
  "features": [
    {
      "type": "Feature",
      "properties": {
        "norad_id": 26766,
        "name": "INTELSAT 10 (IS-10)",
        "group": "intelsat",
        "lat": -8.296706918764025,
        "lon": -46.1787411731225,
        "alt_km": 36095.18826046672,
        "timestamp": "2025-12-27T09:28:56.134501+00:00",
        "meta_object_name": "INTELSAT 10 (IS-10)",
        "meta_object_id": "2001-019A",
        "meta_epoch": "2025-12-27T03:05:42.630432",
        "meta_mean_motion": 0.99071727,
        "meta_eccentricity": 0.0008093,
        "meta_inclination": 8.6618,
        "meta_ra_of_asc_node": 61.0103,
        "meta_arg_of_pericenter": 230.2293,
        "meta_mean_anomaly": 287.814,
        "meta_ephemeris_type": 0,
        "meta_classification_type": "U",
        "meta_norad_cat_id": 26766,
        "meta_element_set_no": 999,
        "meta_rev_at_epoch": 4387,
        "meta_bstar": 0,
        "meta_mean_motion_dot": 6.4e-07,
        "meta_mean_motion_ddot": 0,
        "tle_line1": "1 26766U 01019A   25361.12896563  .00000064  00000+0  00000+0 0  9993",
        "tle_line2": "2 26766   8.6618  61.0103 0008093 230.2293 287.8140  0.99071727 43874"
      },
      "geometry": {
        "type": "Point",
        "coordinates": [
          -46.1787411731225,
          -8.296706918764025
        ]
      }
    },
    {
      "type": "Feature",
      "properties": {
        "norad_id": 26900,
        "name": "INTELSAT 902 (IS-902)",
        "group": "intelsat",
        "lat": 5.187167059715357,
        "lon": -171.82395274104005,
        "alt_km": 35782.28555484634,
        "timestamp": "2025-12-27T09:28:56.134541+00:00",
        "meta_object_name": "INTELSAT 902 (IS-902)",
        "meta_object_id": "2001-039A",
        "meta_epoch": "2025-12-15T13:09:02.081664",
        "meta_mean_motion": 1.0027087,
        "meta_eccentricity": 0.00045028,
        "meta_inclination": 5.6536,
        "meta_ra_of_asc_node": 74.0372,
        "meta_arg_of_pericenter": 189.6359,
        "meta_mean_anomaly": 327.9329,
        "meta_ephemeris_type": 0,
        "meta_classification_type": "U",
        "meta_norad_cat_id": 26900,
        "meta_element_set_no": 999,
        "meta_rev_at_epoch": 8885,
        "meta_bstar": 0,
        "meta_mean_motion_dot": -2.65e-06,
        "meta_mean_motion_ddot": 0,
        "tle_line1": "1 26900U 01039A   25349.54794076 -.00000265  00000+0  00000+0 0  9997",
        "tle_line2": "2 26900   5.6536  74.0372 0004502 189.6359 327.9329  1.00270870 88858"
      },
      "geometry": {
        "type": "Point",
        "coordinates": [
          -171.82395274104005,
          5.187167059715357
        ]
      }
    },
    {
      "type": "Feature",
      "properties": {
        "norad_id": 27380,
        "name": "INTELSAT 904 (IS-904)",
        "group": "intelsat",
        "lat": 4.534501872474983,
        "lon": -152.95606687288006,
        "alt_km": 35788.778730889724,
        "timestamp": "2025-12-27T09:28:56.134559+00:00",
        "meta_object_name": "INTELSAT 904 (IS-904)",
        "meta_object_id": "2002-007A",
        "meta_epoch": "2025-12-27T02:23:21.689376",
        "meta_mean_motion": 1.00272196,
        "meta_eccentricity": 0.0002129,
        "meta_inclination": 6.4885,
        "meta_ra_of_asc_node": 71.2651,
        "meta_arg_of_pericenter": 247.8595,
        "meta_mean_anomaly": 141.0735,
        "meta_ephemeris_type": 0,
        "meta_classification_type": "U",
        "meta_norad_cat_id": 27380,
        "meta_element_set_no": 999,
        "meta_rev_at_epoch": 5004,
        "meta_bstar": 0,
        "meta_mean_motion_dot": -2.06e-06,
        "meta_mean_motion_ddot": 0,
        "tle_line1": "1 27380U 02007A   25361.09955659 -.00000206  00000+0  00000+0 0  9991",
        "tle_line2": "2 27380   6.4885  71.2651 0002129 247.8595 141.0735  1.00272196 50047"
      },
      "geometry": {
        "type": "Point",
        "coordinates": [
          -152.95606687288006,
          4.534501872474983
        ]
      }
    },
    {
      "type": "Feature",
      "properties": {
        "norad_id": 27426,
        "name": "DIRECTV 5 (TEMPO 1)",
        "group": "intelsat",
        "lat": 3.45141748671727,
        "lon": 128.13463126545327,
        "alt_km": 35799.00615898871,
        "timestamp": "2025-12-27T09:28:56.134572+00:00",
        "meta_object_name": "DIRECTV 5 (TEMPO 1)",
        "meta_object_id": "2002-023A",
        "meta_epoch": "2025-12-26T13:17:03.638976",
        "meta_mean_motion": 1.00271439,
        "meta_eccentricity": 0.0003446,
        "meta_inclination": 4.4354,
        "meta_ra_of_asc_node": 77.4895,
        "meta_arg_of_pericenter": 206.4307,
        "meta_mean_anomaly": 260.5228,
        "meta_ephemeris_type": 0,
        "meta_classification_type": "U",
        "meta_norad_cat_id": 27426,
        "meta_element_set_no": 999,
        "meta_rev_at_epoch": 8639,
        "meta_bstar": 0,
        "meta_mean_motion_dot": -3.7e-07,
        "meta_mean_motion_ddot": 0,
        "tle_line1": "1 27426U 02023A   25360.55351434 -.00000037  00000+0  00000+0 0  9993",
        "tle_line2": "2 27426   4.4354  77.4895 0003446 206.4307 260.5228  1.00271439 86390"
      },
      "geometry": {
        "type": "Point",
        "coordinates": [
          128.13463126545327,
          3.45141748671727
        ]
      }
    },
    {
      "type": "Feature",
      "properties": {
        "norad_id": 27438,
        "name": "INTELSAT 905 (IS-905)",
        "group": "intelsat",
        "lat": 3.1058114181878342,
        "lon": 101.04064949789122,
        "alt_km": 35796.470797977985,
        "timestamp": "2025-12-27T09:28:56.134585+00:00",
        "meta_object_name": "INTELSAT 905 (IS-905)",
        "meta_object_id": "2002-027A",
        "meta_epoch": "2025-12-23T05:41:27.377952",
        "meta_mean_motion": 1.00273243,
        "meta_eccentricity": 0.00027491,
        "meta_inclination": 6.3102,
        "meta_ra_of_asc_node": 71.9349,
        "meta_arg_of_pericenter": 206.5226,
        "meta_mean_anomaly": 121.7385,
        "meta_ephemeris_type": 0,
        "meta_classification_type": "U",
        "meta_norad_cat_id": 27438,
        "meta_element_set_no": 999,
        "meta_rev_at_epoch": 4959,
        "meta_bstar": 0,
        "meta_mean_motion_dot": 1.12e-06,
        "meta_mean_motion_ddot": 0,
        "tle_line1": "1 27438U 02027A   25357.23712243  .00000112  00000+0  00000+0 0  9993",
        "tle_line2": "2 27438   6.3102  71.9349 0002749 206.5226 121.7385  1.00273243 49592"
      },
      "geometry": {
        "type": "Point",
        "coordinates": [
          101.04064949789122,
          3.1058114181878342
        ]
      }
    },
    {
      "type": "Feature",
      "properties": {
        "norad_id": 27445,
        "name": "GALAXY 3C (G-3C)",
        "group": "intelsat",
        "lat": 2.956683955946879,
        "lon": 143.45582058501367,
        "alt_km": 35782.1415788565,
        "timestamp": "2025-12-27T09:28:56.134598+00:00",
        "meta_object_name": "GALAXY 3C (G-3C)",
        "meta_object_id": "2002-030A",
        "meta_epoch": "2025-12-26T06:43:38.713152",
        "meta_mean_motion": 1.00271267,
        "meta_eccentricity": 9.7e-05,
        "meta_inclination": 3.2955,
        "meta_ra_of_asc_node": 80.3601,
        "meta_arg_of_pericenter": 86.5436,
        "meta_mean_anomaly": 294.1805,
        "meta_ephemeris_type": 0,
        "meta_classification_type": "U",
        "meta_norad_cat_id": 27445,
        "meta_element_set_no": 999,
        "meta_rev_at_epoch": 4476,
        "meta_bstar": 0,
        "meta_mean_motion_dot": -1.32e-06,
        "meta_mean_motion_ddot": 0,
        "tle_line1": "1 27445U 02030A   25360.28030918 -.00000132  00000+0  00000+0 0  9999",
        "tle_line2": "2 27445   3.2955  80.3601 0000970  86.5436 294.1805  1.00271267 44760"
      },
      "geometry": {
        "type": "Point",
        "coordinates": [
          143.45582058501367,
          2.956683955946879
        ]
      }
    },
    {
      "type": "Feature",
      "properties": {
        "norad_id": 27513,
        "name": "INTELSAT 906 (IS-906)",
        "group": "intelsat",
        "lat": -3.9691067827463855,
        "lon": -57.6118022097505,
        "alt_km": 35763.00276059596,
        "timestamp": "2025-12-27T09:28:56.134611+00:00",
        "meta_object_name": "INTELSAT 906 (IS-906)",
        "meta_object_id": "2002-041A",
        "meta_epoch": "2025-12-26T18:28:14.405088",
        "meta_mean_motion": 1.00271072,
        "meta_eccentricity": 0.0006168,
        "meta_inclination": 5.3657,
        "meta_ra_of_asc_node": 75.0649,
        "meta_arg_of_pericenter": 203.0067,
        "meta_mean_anomaly": 158.6263,
        "meta_ephemeris_type": 0,
        "meta_classification_type": "U",
        "meta_norad_cat_id": 27513,
        "meta_element_set_no": 999,
        "meta_rev_at_epoch": 8530,
        "meta_bstar": 0,
        "meta_mean_motion_dot": 3.3e-07,
        "meta_mean_motion_ddot": 0,
        "tle_line1": "1 27513U 02041A   25360.76961117  .00000033  00000+0  00000+0 0  9993",
        "tle_line2": "2 27513   5.3657  75.0649 0006168 203.0067 158.6263  1.00271072 85303"
      },
      "geometry": {
        "type": "Point",
        "coordinates": [
          -57.6118022097505,
          -3.9691067827463855
        ]
      }
    }
  ]
}